OBJECT_NAME,OBJECT_ID,EPOCH,MEAN_MOTION,ECCENTRICITY,INCLINATION,RA_OF_ASC_NODE,ARG_OF_PERICENTER,MEAN_ANOMALY,EPHEMERIS_TYPE,CLASSIFICATION_TYPE,NORAD_CAT_ID,ELEMENT_SET_NO,REV_AT_EPOCH,BSTAR,MEAN_MOTION_DOT,MEAN_MOTION_DDOT
SIRION PATHFINDER-2,2018-099B,2026-05-13T02:17:32.962560,15.14216957,.0010238,97.4282,182.9909,67.3448,292.8866,0,U,43759,999,40731,.18446396E-3,.3308E-4,0
CORVUS BC4,2018-099K,2026-05-13T20:22:25.675392,15.12204138,.0009985,97.4097,177.8372,116.0020,244.2240,0,U,43767,999,40721,.16177E-3,.2733E-4,0
M2 PATHFINDER,2020-037E,2026-05-13T11:08:41.447040,15.04520999,.0010079,97.8165,324.3080,270.3149,89.6921,0,U,45727,999,32027,.11972E-3,.1614E-4,0
NETSAT-4,2020-068U,2026-05-13T12:00:00.808704,15.42681553,.0007646,97.8615,138.9870,89.0343,271.1779,0,U,46504,999,31042,.26646E-3,.11537E-3,0
NETSAT-3,2020-068V,2026-05-13T13:03:21.415968,15.41453660,.0007521,97.8664,137.2966,101.5501,258.6589,0,U,46505,999,31034,.29095E-3,.121E-3,0
NETSAT-1,2020-068W,2026-05-13T12:03:01.725120,15.33771865,.000679,97.8750,131.9823,120.8289,239.3621,0,U,46506,999,30998,.25313E-3,.8185E-4,0
NETSAT-2,2020-068X,2026-05-13T12:27:43.257024,15.44488253,.0006204,97.8631,138.7857,109.9337,250.2579,0,U,46507,999,31038,.30982E-3,.14275E-3,0
GREENCUBE (IO-117),2022-080E,2026-05-13T11:27:25.553376,6.42583324,.0008811,70.1436,310.3212,297.6025,62.3740,0,U,53109,999,8983,0,-.3E-7,0
SITRO-AIS 5 (KATYS),2023-091L,2026-05-13T20:14:02.697792,15.28637187,.0010809,97.5083,197.4346,216.4226,143.6279,0,U,57176,999,15909,.2747E-3,.7587E-4,0
SITRO-AIS 6 (CHIRKIN),2023-091AC,2026-05-13T19:26:31.178112,15.25256289,.0010947,97.5090,196.6985,220.1831,139.8598,0,U,57192,999,15904,.15062E-3,.3718E-4,0
SITRO-AIS 8 (ANOKHIN),2023-091AD,2026-05-13T20:28:29.248320,15.31171890,.0010115,97.5079,198.8981,211.5083,148.5553,0,U,57193,999,15919,.2897E-3,.8658E-4,0
SITRO-AIS 7 (FARTUSHNIY),2023-091AE,2026-05-13T20:55:41.346912,15.24962606,.001077,97.5087,196.6030,221.1008,138.9419,0,U,57194,999,15904,.14868E-3,.3637E-4,0
SITRO-AIS 10 (BURDAEV),2023-091AK,2026-05-13T19:54:31.562208,15.37270244,.0007134,97.5101,203.5851,183.2151,176.9049,0,U,57199,999,15948,.34883E-3,.12668E-3,0
SITRO-AIS 9 (SHCHUKIN),2023-091AM,2026-05-13T20:17:29.914368,15.36818807,.0007331,97.5099,203.3573,183.9503,176.1684,0,U,57201,999,15947,.36081E-3,.12917E-3,0
SITRO-AIS 12 (SMIRENNIY),2023-091AQ,2026-05-13T20:13:13.767744,15.37103409,.0007139,97.5111,203.8002,177.8865,182.2410,0,U,57204,999,15949,.35574E-3,.12851E-3,0
SITRO-AIS 11 (SHEFFER),2023-091AU,2026-05-13T20:45:40.943808,15.37495376,.0007075,97.5110,204.0489,177.5689,182.5590,0,U,57208,999,15951,.3689E-3,.13501E-3,0
SITRO-AIS 25,2024-039R,2026-05-13T20:51:22.860576,14.93265411,.0147442,95.3921,211.5136,88.2071,273.6035,0,U,59066,999,11960,.22084E-3,.2829E-4,0
SITRO-AIS 26,2024-039S,2026-05-13T20:46:42.489984,14.93068343,.0147772,95.3922,211.4159,88.7425,273.0724,0,U,59067,999,11959,.21519E-3,.2744E-4,0
SITRO-AIS 27,2024-039T,2026-05-13T20:17:35.924352,14.93480594,.0146956,95.3925,211.6578,87.5101,274.2939,0,U,59068,999,11961,.23349E-3,.3007E-4,0
SITRO-AIS 28,2024-039U,2026-05-13T21:22:44.212800,14.93514476,.0146802,95.3925,211.7343,87.2377,274.5640,0,U,59071,999,11962,.2612E-3,.3369E-4,0
GRBBETA,2024-128C,2026-05-12T23:23:57.016608,15.06341838,.00453026,61.9907,339.7812,127.3925,233.1305,0,U,60237,999,10096,.19345903E-3,.2703E-4,0
OOV-CUBE (TUBSAT-30),2024-128F,2026-05-13T02:53:14.043552,15.02589480,.00489092,61.9950,347.8334,126.1268,234.4365,0,U,60240,999,10084,.12162231E-3,.145E-4,0
ROBUSTA-3A (MEDITERRANEE),2024-128J,2026-05-13T17:34:05.606112,15.11114203,.0045922,61.9869,330.0390,121.4004,239.1595,0,U,60243,999,10121,.30284E-3,.5E-4,0
LASARSAT,2024-247Q,2026-05-13T07:48:14.277600,15.44166921,.0004764,44.9736,97.7722,121.9276,238.2076,0,U,62391,999,7792,.41582E-3,.19182E-3,0
CROCUBE,2024-247T,2026-05-13T04:02:10.019328,15.45750204,.0004393,44.9712,96.5072,123.9905,236.1402,0,U,62394,999,7792,.44259E-3,.21595E-3,0
FORESAIL-1 PRIME,2025-276DS,2026-05-13T19:07:32.504736,15.18372899,.000187,97.4210,207.7041,184.8187,175.3030,0,U,66778,999,2518,.15012E-3,.3018E-4,0
KNACKSAT-2,1998-067XZ,2026-05-13T03:27:21.542976,15.56883677,.0012516,51.6273,110.3103,69.1546,291.0785,0,U,67683,999,1481,.37475E-3,.27142E-3,0
